GLOBALSTAR M045 [-]     
1 25676U 99019A   24108.34033667 -.00000059  00000+0  30308-3 0  9992
2 25676  51.9968  78.9919 0000676  86.6181  61.7013 12.27034885141114
GLOBALSTAR M019 [-]     
1 25677U 99019B   24108.90536453 -.00000176  00000+0 -90186-3 0  9997
2 25677  51.9859 177.8311 0001425 170.8003   0.4318 12.13854510133491
GLOBALSTAR M044 [-]     
1 25678U 99019C   24108.91950763 -.00000052  00000+0  44784-3 0  9998
2 25678  51.9966  75.9452 0006175 302.1335 148.9152 11.90230865120686
GLOBALSTAR M042 [-]     
1 25679U 99019D   24108.94335943 -.00000055  00000+0  35019-3 0  9993
2 25679  51.9995 171.4047 0003329 142.6592  29.3833 12.22059787133265
GLOBALSTAR M025 [-]     
1 25770U 99031A   24108.14132008 -.00000050  00000+0  54033-3 0  9990
2 25770  51.9822  66.2265 0001322 147.0292 302.3828 11.22550130433860
GLOBALSTAR M049 [-]     
1 25771U 99031B   24108.30780646 -.00000110  00000+0 -15451-2 0  9994
2 25771  51.9865  79.2018 0003032  19.9858 340.1057 11.12103706 70046
GLOBALSTAR M047 [-]     
1 25772U 99031C   24108.32848007 -.00000049  00000+0  56832-3 0  9992
2 25772  51.9800 116.8123 0016497 251.6079 108.2933 11.31920116422882
GLOBALSTAR M052 [-]     
1 25773U 99031D   24108.51602782 -.00000026  00000+0  13414-2 0  9995
2 25773  51.9851 193.3965 0003104 183.6355 280.2570 11.15050331431024
